HORYU-4                 
1 41340U 16012D   21023.66067431  .00000549  00000-0  34487-4 0  9991
2 41340  31.0066   9.2396 0013906 175.0926 184.9848 15.01719288271002
E-ST@R-II               
1 41459U 16025D   21023.86862786  .00003154  00000-0  15829-3 0  9997
2 41459  98.1217 151.7358 0162628 189.2679 170.5517 15.07313193260636
AAUSAT 4                
1 41460U 16025E   21023.84426888  .00004218  00000-0  20229-3 0  9998
2 41460  98.1179 154.8992 0150362 175.4087 184.8576 15.10031705260885
BEESAT-4                
1 41619U 16040W   21023.72727416  .00001699  00000-0  71141-4 0  9999
2 41619  97.2917  83.7717 0012368 119.1861 241.0616 15.24820269242959
CANX-7                  
1 41788U 16059F   21023.82369467  .00007786  00000-0  97271-3 0  9999
2 41788  98.2567 123.8934 0024296 303.6392  56.2563 14.82434487232410
RAVAN                   
1 41849U 16067B   21023.87380551  .00001235  00000-0  10753-3 0  9991
2 41849  97.9483 143.7479 0007543 212.8116 147.2638 14.98835438229639
CELTEE 1                
1 41850U 16067C   21023.81131954  .00000544  00000-0  52127-4 0  9992
2 41850  97.9416 140.7236 0007408 226.7978 133.2625 14.97341684229472
OPTICUBE 04             
1 41851U 16067D   21023.91637913  .00000254  00000-0  27366-4 0  9995
2 41851  97.9389 140.3202 0007991 230.3028 129.7489 14.97025366229468
AEROCUBE 8D             
1 41852U 16067E   21023.79681492  .00000893  00000-0  82704-4 0  9999
2 41852  97.9399 140.0518 0008449 229.7703 130.2780 14.97082491229427
AEROCUBE 8C             
1 41853U 16067F   21023.83348895 -.00000101  00000-0 -34355-5 0  9996
2 41853  97.9391 139.9724 0009048 234.9232 125.1141 14.97046581229421
PROMETHEUS 2-1          
1 41854U 16067G   21023.88398053  .00000240  00000-0  25874-4 0  9990
2 41854  97.9413 140.5061 0008914 231.8060 128.2360 14.97466689229450
PROMETHEUS 2-3          
1 41855U 16067H   21023.88289761  .00000373  00000-0  37306-4 0  9996
2 41855  97.9416 140.5489 0009075 232.0959 127.9442 14.97480591229452
INS-1B                  
1 41954U 17008G   21023.93367037  .00001577  00000-0  64977-4 0  9992
2 41954  97.3282  90.1277 0007470 236.7058 123.3465 15.25544550218978
BGUSAT                  
1 41999U 17008BD  21023.83085730  .00002794  00000-0  10237-3 0  9998
2 41999  97.3431  95.5262 0006273 241.3695 118.6914 15.28824347218609
DIDO-2                  
1 42000U 17008BE  21023.69326925  .00001083  00000-0  46274-4 0  9991
2 42000  97.3288  90.2834 0006674 261.5815  98.4667 15.24974167218324
PEASSS                  
1 42015U 17008BV  21023.69226428  .00001426  00000-0  57722-4 0  9995
2 42015  97.3320  92.3657 0004608 261.4908  98.5809 15.26306609218938
AL-FARABI 1             
1 42016U 17008BW  21023.90792873  .00001845  00000-0  71621-4 0  9991
2 42016  97.3359  94.0273 0004429 258.3111 101.7632 15.27349556219162
NAYIF-1 (EO-88)         
1 42017U 17008BX  21023.68385482  .00001906  00000-0  73787-4 0  9994
2 42017  97.3353  93.8158 0004479 258.6322 101.4414 15.27396525219150
UCLSAT                  
1 42765U 17036A   21023.86336968  .00001505  00000-0  64476-4 0  9990
2 42765  97.2722  77.8792 0010220 337.0034  23.0745 15.24242702200147
LITUANICASAT-2          
1 42768U 17036D   21023.86466532  .00002435  00000-0  99453-4 0  9990
2 42768  97.2794  78.2773 0012934 322.8565  37.1777 15.25254680199426
AALTO-1                 
1 42775U 17036L   21023.89216722  .00000920  00000-0  42858-4 0  9999
2 42775  97.2695  75.0629 0012700 330.4827  29.5691 15.22290122199200
URSA MAIOR              
1 42776U 17036M   21023.85224962  .00000991  00000-0  45628-4 0  9997
2 42776  97.2708  75.4115 0012487 330.1901  29.8623 15.22521223199210
COMPASS 2               
1 42777U 17036N   21023.72534974  .00001937  00000-0  80674-4 0  9992
2 42777  97.2778  78.4422 0010766 326.3827  33.6727 15.24869761199351
DIAMOND RED             
1 42783U 17036U   21023.57137928  .00001210  00000-0  53680-4 0  9991
2 42783  97.2723  76.6206 0011047 340.7750  19.3069 15.23410036199251
PEGASUS                 
1 42784U 17036V   21023.87089358  .00001322  00000-0  57573-4 0  9997
2 42784  97.2727  77.4821 0010826 337.9591  22.1180 15.23871195199335
DIAMOND GREEN           
1 42785U 17036W   21023.63613941  .00001198  00000-0  53148-4 0  9998
2 42785  97.2727  76.7256 0010969 341.2160  18.8671 15.23408415199336
DIAMOND BLUE            
1 42786U 17036X   21023.63509244  .00001184  00000-0  52593-4 0  9997
2 42786  97.2725  76.7185 0010819 341.6239  18.4606 15.23408650199336
NUDTSAT                 
1 42787U 17036Y   21023.91552036  .00001958  00000-0  79980-4 0  9994
2 42787  97.2776  79.4852 0010571 333.5205  26.5491 15.25515452199290
SUCHAI                  
1 42788U 17036Z   21023.80817423  .00001633  00000-0  69093-4 0  9991
2 42788  97.2738  78.2333 0010261 335.9406  24.1351 15.24547355199447
SKCUBE                  
1 42789U 17036AA  21023.88035845  .00001516  00000-0  64771-4 0  9998
2 42789  97.2731  78.0796 0010187 336.3240  23.7528 15.24333645199367
VZLUSAT-1               
1 42790U 17036AB  21023.90749250  .00002022  00000-0  82576-4 0  9991
2 42790  97.2766  79.4675 0009465 332.7429  27.3311 15.25491042199440
ROBUSTA-1B              
1 42792U 17036AD  21023.87073839  .00001563  00000-0  66270-4 0  9994
2 42792  97.2735  78.3954 0009774 336.8237  23.2559 15.24547851199393
CICERO 6                
1 42793U 17036AE  21023.90101654  .00001012  00000-0  45072-4 0  9992
2 42793  97.2707  77.5096 0009306 341.2382  18.8511 15.23649420199429
D-SAT                   
1 42794U 17036AF  21023.78367770  .00000316  00000-0  32609-4 0  9990
2 42794  97.4739  51.2718 0125520 350.0692   9.8048 14.91431623195492
CORVUS BC2              
1 42846U 17042X   21023.93070710  .00000341  00000-0  38601-4 0  9993
2 42846  97.4940 263.1482 0008057 260.8552  99.1756 14.92215714192288
CORVUS BC1              
1 42847U 17042Y   21023.91137337  .00000010  00000-0  61698-5 0  9997
2 42847  97.4942 263.3402 0007691 259.7411 100.2942 14.92317722192282
MIRATA                  
1 43015U 17073C   21023.69030139  .00001509  00000-0  11973-3 0  9999
2 43015  97.7134 293.4965 0252541  49.9946 312.3138 14.80225906171797
MAKERSAT 0              
1 43016U 17073D   21023.72635850  .00001049  00000-0  85063-4 0  9996
2 43016  97.7169 293.6484 0255834  51.5507 310.8366 14.79628374171772
DELLINGR (RBLE)         
1 43021U 98067NJ  21023.79156616  .00038724  00000-0  18535-3 0  9998
2 43021  51.6297 226.5833 0003072 175.9534 184.1494 15.82353544181592
AEROCUBE 7B (OCSD B)    
1 43042U 17071F   21023.40863272  .00004881  00000-0  10666-3 0  9992
2 43042  51.6378  65.6325 0003989 124.7976 235.3387 15.46094549176379
AEROCUBE 7C (OCSD C)    
1 43043U 17071G   21023.80531438  .00004868  00000-0  10673-3 0  9996
2 43043  51.6375  63.7955 0004191 130.6807 229.4544 15.46004697176408
CHEFSAT                 
1 43044U 17071H   21023.40314067  .00011636  00000-0  18574-3 0  9999
2 43044  51.6370  41.2285 0003054 128.1464 231.9802 15.53676371176675
ASGARDIA 1              
1 43049U 17071N   21023.79997671  .00004954  00000-0  10866-3 0  9995
2 43049  51.6390  63.1123 0001952 140.0501 220.0630 15.45945201176418
ISARA                   
1 43050U 17071P   21023.89205439  .00010851  00000-0  18436-3 0  9996
2 43050  51.6349  43.5626 0001319 123.8160 236.2956 15.52006052176680
PROPCUBE 2 (FAUNA)      
1 43052U 17071R   21023.51593159  .00005823  00000-0  12340-3 0  9997
2 43052  51.6380  61.9763 0001858 134.4936 225.6204 15.46608084176392
CORVUS BC3              
1 43118U 18004H   21023.90693230  .00000896  00000-0  40094-4 0  9994
2 43118  97.4210  98.1317 0010212   7.5741 352.5648 15.23845495168566
MICROMAS-2A             
1 43131U 18004W   21023.88014654  .00002228  00000-0  88454-4 0  9996
2 43131  97.4274 100.7263 0008566   4.6210 355.5106 15.26383012168702
SPACEBEE-4              
1 43139U 18004AE  21023.89542820  .00003386  00000-0  12601-3 0  9992
2 43139  97.4325 102.5451 0007726   4.8976 355.2338 15.28168445168802
SPACEBEE-3              
1 43140U 18004AF  21023.88286167  .00004175  00000-0  14867-3 0  9995
2 43140  97.4349 103.6339 0007149   2.1587 357.9682 15.29487421168861
SPACEBEE-2              
1 43141U 18004AG  21023.94098610  .00004530  00000-0  15888-3 0  9996
2 43141  97.4365 104.1152 0007025   0.5940 359.5308 15.29939950168892
SPACEBEE-1              
1 43142U 18004AH  21023.65115103  .00005051  00000-0  17396-3 0  9997
2 43142  97.4372 104.2451 0006905   1.0816 359.0439 15.30477094168863
CICERO 7                
1 43143U 18004AJ  21023.88080671  .00002032  00000-0  81035-4 0  9992
2 43143  97.4251 100.8444 0007197  16.6659 343.4815 15.26338743168727
GOMX-4B                 
1 43196U 18015E   21023.90004381  .00000594  00000-0  26879-4 0  9995
2 43196  97.4633 157.2231 0019643  52.0483 308.2525 15.24694410165488
GOMX-4A                 
1 43197U 18015F   21023.89484289  .00001038  00000-0  44313-4 0  9990
2 43197  97.4622 157.3853 0020092  53.1722  62.8470 15.25010911165500
UBAKUSAT                
1 43467U 98067NQ  20362.27906033  .06269310  12352-4  52456-3 0  9996
2 43467  51.6190 354.3668 0001241 137.3285 222.7838 16.38845679150702
TEMPEST-D               
1 43547U 98067NV  21023.95726941  .00023680  00000-0  18174-3 0  9997
2 43547  51.6345 273.6856 0006113 154.3577 205.7725 15.71930784144067
HALOSAT                 
1 43549U 98067NX  21004.26885481  .06549442  12287-4  57988-3 0  9992
2 43549  51.6198 324.6215 0004053 189.4390 170.6560 16.38331810141630
EQUISAT                 
1 43552U 98067PA  20361.21801847  .10316869  12478-4  50011-3 0  9992
2 43552  51.6122   8.3673 0000676 209.2273 150.8717 16.43170683140619
AEROCUBE 12A            
1 43556U 18046C   21023.65425803  .00001291  00000-0  54759-4 0  9990
2 43556  51.6407 126.8423 0007970   7.9746 352.1360 15.30851699141092
